OSCAR 7 (AO-7)          
1 07530U 74089B   20023.53266275 -.00000043  00000-0  12606-4 0  9993
2 07530 101.7799 354.2127 0011980 286.0134 183.3008 12.53641695 67703
UOSAT 2 (UO-11)         
1 14781U 84021B   20024.03638545  .00000075  00000-0  15292-4 0  9993
2 14781  97.5972  43.1888 0007575 327.9718  32.1035 14.83136947931277
LUSAT (LO-19)           
1 20442U 90005G   20023.57592013 -.00000031  00000-0  51468-5 0  9999
2 20442  98.6755 330.4732 0010964 220.7578 139.2786 14.32943033567665
ITAMSAT (IO-26)         
1 22826U 93061D   20023.51502809 -.00000015  00000-0  11988-4 0  9994
2 22826  98.9129  22.2866 0009946  72.4679 287.7589 14.30410889373185
RADIO ROSTO (RS-15)     
1 23439U 94085A   20023.58133555 -.00000054  00000-0 -33120-3 0  9992
2 23439  64.8164 122.1507 0146145  70.3145 291.3480 11.27568962 32572
JAS-2 (FO-29)           
1 24278U 96046B   20023.64688222 -.00000034  00000-0  11241-5 0  9995
2 24278  98.5657 152.7062 0350916  32.6626 329.5697 13.53094943157417
TECHSAT 1B (GO-32)      
1 25397U 98043D   20023.54373617 -.00000027  00000-0  73827-5 0  9995
2 25397  98.7138 326.2735 0002276 106.5027 253.6401 14.23678047119015
ISS (ZARYA)             
1 25544U 98067A   20024.22416442 -.00025624  00000-0 -45634-3 0  9999
2 25544  51.6460 345.7248 0006034 189.3781 304.5467 15.49109327209547
PCSAT (NO-44)           
1 26931U 01043C   20023.82026921 -.00000070  00000-0  49947-5 0  9992
2 26931  67.0509 158.2144 0006656 262.9675  97.0669 14.30565149956314
SAUDISAT 1C (SO-50)     
1 27607U 02058C   20023.52341651 -.00000038  00000-0  15473-4 0  9997
2 27607  64.5555 100.5394 0065675 212.8519 146.8494 14.75604301919324
CUTE-1 (CO-55)          
1 27844U 03031E   20024.01496792  .00000042  00000-0  38481-4 0  9992
2 27844  98.6836  33.9333 0010825 114.2642 245.9668 14.22217280859468
CUBESAT XI-IV (CO-57)   
1 27848U 03031J   20023.50689931  .00000027  00000-0  32067-4 0  9995
2 27848  98.6906  33.9734 0010608 126.5566 233.6589 14.21806955859205
MOZHAYETS 4 (RS-22)     
1 27939U 03042A   20024.22651887  .00000051  00000-0  17767-4 0  9994
2 27939  98.0668 161.1810 0014345  93.3137 266.9717 14.66831571872726
CUBESAT XI-V            
1 28895U 05043F   20023.81059029  .00000060  00000-0  20316-4 0  9997
2 28895  97.9862 164.4511 0017173  24.5492 335.6525 14.63731340759532
CUTE-1.7+APD II (CO-65) 
1 32785U 08021C   20023.51869357  .00000161  00000-0  22984-4 0  9994
2 32785  97.5619  18.0549 0011566 255.9721 104.0210 14.88407221636236
DELFI-C3 (DO-64)        
1 32789U 08021G   20023.57774676  .00000521  00000-0  38357-4 0  9994
2 32789  97.4385  71.3507 0013727  96.3815 263.8976 15.07404010639834
SEEDS II (CO-66)        
1 32791U 08021J   20023.50195061  .00000159  00000-0  21435-4 0  9991
2 32791  97.5340  24.1659 0012202 224.4520 135.5721 14.90957297636715
YUBILEINY (RS-30)       
1 32953U 08025A   20023.88252188  .00000037  00000-0  19437-3 0  9993
2 32953  82.5037   8.4423 0019761  14.9270 345.2392 12.43093877529544
KKS-1 (KISEKI)          
1 33499U 09002H   20023.85516610  .00000086  00000-0  20746-4 0  9995
2 33499  98.3314 234.3637 0008202 223.4811 136.5751 14.75497951591543
SWISSCUBE               
1 35932U 09051B   20024.04563916  .00000072  00000-0  27425-4 0  9992
2 35932  98.6009 201.7010 0007164 205.6895 154.3947 14.56351021548705
BEESAT-1                
1 35933U 09051C   20023.76098539  .00000076  00000-0  28140-4 0  9994
2 35933  98.6021 203.2453 0005117 218.5507 141.5325 14.56432038548770
ITUPSAT1                
1 35935U 09051E   20024.01432295  .00000037  00000-0  19714-4 0  9990
2 35935  98.6130 203.7250 0007459 218.3694 141.6973 14.55583399548540
XIWANG-1 (HOPE-1)       
1 36122U 09072B   20023.55293552 -.00000032  00000-0  27678-4 0  9995
2 36122 100.0837  20.7152 0007314 195.4684 164.6213 13.16353073485679
JUGNU                   
1 37839U 11058B   20024.19443106  .00000305  00000-0  20770-4 0  9999
2 37839  19.9621  83.6648 0018691 226.6996 171.3127 14.12669870428336
SRMSAT                  
1 37841U 11058D   20023.58002802  .00000278  00000-0  78194-5 0  9991
2 37841  19.9710 148.6977 0011959  80.9687  15.2991 14.10648256427543
M-CUBED & EXP-1 PRIME   
1 37855U 11061F   20023.49329353  .00000600  00000-0  37682-4 0  9998
2 37855 101.7268  36.6300 0172086 148.0341 213.1450 15.05949176449233
STRAND-1                
1 39090U 13009E   20023.57271390  .00000013  00000-0  19585-4 0  9991
2 39090  98.4672 230.6319 0009237   5.6890 354.4399 14.35115009361783
SOMP                    
1 39134U 13015E   20023.72692240  .00001078  00000-0  57441-4 0  9990
2 39134  64.8633  30.5421 0038311 267.2827  92.3915 15.20679788373899
BEESAT-3                
1 39135U 13015F   20023.51738770  .00000884  00000-0  52358-4 0  9993
2 39135  64.8665  52.6339 0045450 269.2242  90.3677 15.17873766373063
BEESAT-2                
1 39136U 13015G   20023.50618724  .00000616  00000-0  40519-4 0  9998
2 39136  64.8710  57.1652 0030892 279.0816  80.6815 15.17289863373361
ZACUBE-1 (TSHEPISOSAT)  
1 39417U 13066B   20023.51970718  .00000198  00000-0  31141-4 0  9997
2 39417  97.5615  29.6981 0059795  37.6629 322.8748 14.81210535333432
GOMX-1                  
1 39430U 13066Q   20024.10685852  .00000092  00000-0  26253-4 0  9991
2 39430  97.7751 331.5464 0149830 282.7798  75.6700 14.59341726328607
CUBEBUG-2 (LO-74)       
1 39440U 13066AA  20023.53167282  .00000174  00000-0  30869-4 0  9999
2 39440  97.6172  14.2196 0081621  94.0041 267.0504 14.75946651331057
FUNCUBE-1 (AO-73)       
1 39444U 13066AE  20023.80323029  .00000241  00000-0  35777-4 0  9994
2 39444  97.5574  32.1028 0058713  29.7535 330.6997 14.82049331332385
UWE-3                   
1 39446U 13066AG  20023.97313214  .00000180  00000-0  30385-4 0  9991
2 39446  97.5891  21.8202 0071327  65.0167 295.8431 14.78482190331662
SPROUT                  
1 39770U 14029E   20024.13449596  .00000571  00000-0  68911-4 0  9993
2 39770  97.8907 131.1454 0010035  85.4581 274.7775 14.87585999307450
UNISAT-6                
1 40012U 14033C   20023.53111357  .00000134  00000-0  27135-4 0  9991
2 40012  97.7283 245.3488 0059587 111.0531 249.7064 14.74058909300928
DUCHIFAT-1              
1 40021U 14033M   20023.36736648  .00000291  00000-0  35426-4 0  9994
2 40021  97.9355 313.7927 0014051  52.6330 307.6165 14.90792638304126
QB50P1                  
1 40025U 14033R   20023.43819314  .00000151  00000-0  21967-4 0  9998
2 40025  97.9125 307.8069 0013749  62.6286 297.6328 14.89057566303872
NUDT-PHONESAT           
1 40900U 15049B   20023.99753191  .00001456  00000-0  63815-4 0  9996
2 40900  97.4342  36.2413 0013979 130.3180 285.9248 15.23532716241042
ZDPS 2A                 
1 40901U 15049C   20024.19878796  .00000698  00000-0  37572-4 0  9997
2 40901  97.4615  31.9019 0013951 152.5500 273.5786 15.18037433240535
ZDPS 2B                 
1 40902U 15049D   20024.17816182  .00000794  00000-0  42324-4 0  9995
2 40902  97.4583  29.2149 0014198 150.1288 278.9094 15.17964134240509
XW-2A                   
1 40903U 15049E   20024.15510861  .00001363  00000-0  33278-4 0  9990
2 40903  97.3109  72.8729 0015104  73.0700   2.8293 15.42548901244070
KAITUO 1A               
1 40904U 15049F   20024.20673789  .00000352  00000-0  21994-4 0  9995
2 40904  97.4733  27.5516 0014933 161.1166 260.5815 15.15574489240248
2015-049G               
1 40905U 15049G   20024.18237448  .00000468  00000-0  28970-4 0  9990
2 40905  97.4793  24.8611 0016264 157.5227 267.8018 15.14445497240090
XW-2C                   
1 40906U 15049H   20024.09758593  .00000150  00000-0  11270-4 0  9993
2 40906  97.4732  27.6363 0015557 152.6494 280.4243 15.15900628240235
XW-2D                   
1 40907U 15049J   20024.11193770  .00000481  00000-0  28367-4 0  9999
2 40907  97.4719  27.3395 0014931 149.5375 279.5923 15.16114280240259
LILACSAT-2              
1 40908U 15049K   20024.16740834 -.00000042  00000-0  12852-5 0  9991
2 40908  97.4862  25.9472 0016526 158.5673 270.0028 15.13937741240010
XW-2F                   
1 40910U 15049M   20024.12223128  .00000787  00000-0  42323-4 0  9992
2 40910  97.4658  29.6970 0015723 141.1897 283.2566 15.17663685240294
XW-2B                   
1 40911U 15049N   20024.02218991  .00000215  00000-0  14608-4 0  9995
2 40911  97.4733  27.9360 0014850 150.9846 274.4994 15.16039779240135
KAITUO 1B               
1 40912U 15049P   20024.14524462  .00000812  00000-0  40786-4 0  9991
2 40912  97.4494  33.6982 0016266 122.7226 297.4590 15.20020409240644
TIANWANG 1C (TW-1C)     
1 40926U 15051B   20024.12008194  .00012002  00000-0  14601-3 0  9996
2 40926  97.1084  75.3162 0004753 272.7181 150.4749 15.60677488244320
TIANWANG 1A (TW-1A)     
1 40928U 15051D   20024.05595428  .00001977  00000-0  48498-4 0  9992
2 40928  97.1258  55.3718 0010885   7.0700  44.6894 15.41845820242968
LAPAN-A2                
1 40931U 15052B   20022.24229943  .00000646  00000-0  71676-6 0  9990
2 40931   5.9978 305.2532 0014232 354.0615   5.9774 14.76623875233462
E-ST@R-II               
1 41459U 16025D   20024.24038474 -.00000199  00000-0 -52714-5 0  9992
2 41459  98.0969 126.8101 0165665 340.8484  18.6603 15.05986859205585
AAUSAT 4                
1 41460U 16025E   20024.19266694  .00000956  00000-0  51445-4 0  9993
2 41460  98.0954 128.6066 0155039 331.3922  27.8871 15.08105629205745
NUSAT-1 (FRESCO)        
1 41557U 16033B   20024.18036428  .00000905  00000-0  36169-4 0  9998
2 41557  97.4093 115.3730 0012284 238.3431 121.6611 15.27679383203595
BEESAT-4                
1 41619U 16040W   20023.64562982  .00000964  00000-0  43137-4 0  9992
2 41619  97.3407  86.5008 0010455 341.5975  18.4882 15.23628432187192
CAS-2T & KS-1Q          
1 41847U 16066G   20023.57859827  .00000027  00000-0  15445-4 0  9993
2 41847  98.6772  72.4557 0364784 303.5880  53.0977 14.38035290168454
NAYIF-1 (EO-88)         
1 42017U 17008BX  20023.28367397  .00001160  00000-0  47781-4 0  9991
2 42017  97.3791  92.8783 0007763 113.3416 246.8640 15.26078423163256
MAX VALIER SAT          
1 42778U 17036P   20024.15793084  .00000611  00000-0  29424-4 0  9993
2 42778  97.3267  81.6623 0012745 166.2395 193.9191 15.22362244143621
RADFXSAT (FOX-1B)       
1 43017U 17073E   20023.57989990  .00000230  00000-0  23297-4 0  9998
2 43017  97.7271 301.4223 0257822 165.2614 195.6301 14.78775963117603
FOX-1D (AO-92)          
1 43137U 18004AC  20023.45713509  .00000791  00000-0  35792-4 0  9999
2 43137  97.4637  95.5051 0008646 199.0642 161.0272 15.23837747112815
ES'HAIL 2               
1 43700U 18090A   20023.76671992  .00000136  00000-0  00000+0 0  9995
2 43700   0.0155  80.7977 0001897 262.0165  81.5213  1.00272482  4495
FOX-1CLIFF (AO-95)      
1 43770U 18099N   20024.12854587  .00000163  00000-0  20171-4 0  9991
2 43770  97.7231  97.9316 0013670 326.6096  33.4261 14.94893595 62202
ITASAT 1                
1 43786U 18099AE  20024.15905261  .00000360  00000-0  37912-4 0  9997
2 43786  97.7248  98.2765 0014113 320.4090  39.6099 14.95249227 62225
JY1SAT (JO-97)          
1 43803U 18099AX  20024.18979588  .00000007  00000-0  58597-5 0  9994
2 43803  97.7204  98.1630 0014179 320.1801  39.8378 14.95403570 62221
PSAT2 (NO-104)          
1 44354U 19036R   20023.35264408  .00008143  00000-0  11993-3 0  9990
2 44354  28.5310 258.1561 0374750 193.8266 165.1812 15.00794667 31834
BRICSAT2 (NO-103)       
1 44355U 19036S   20022.97002571  .00013378  00000-0  19541-3 0  9992
2 44355  28.5313 257.9857 0362827 194.1383 164.8814 15.03774701 31792
JAISAT-1                
1 44419U 19038F   20024.15636127  .00000626  00000-0  39569-4 0  9992
2 44419  97.5194 347.6595 0020141 272.0129  87.8795 15.12535389 30637
DUCHIFAT-3              
1 44854U 19089C   20024.01701154  .00000116  00000-0  15869-4 0  9990
2 44854  36.9674 237.7798 0009752 321.6142  38.3905 14.98953510  6466
